{
  "type": "FeatureCollection",
  "features": [
    {
      "type": "Feature",
      "properties": {
        "norad_id": 67012,
        "name": "STARLINK-36175",
        "group": "last-30-days",
        "lat": -41.34859592797646,
        "lon": 119.13028321414366,
        "alt_km": 367.79334926630963,
        "timestamp": "2025-12-27T18:38:02.206404+00:00",
        "meta_object_name": "STARLINK-36175",
        "meta_object_id": "2025-293K",
        "meta_epoch": "2025-12-27T12:00:02.000160",
        "meta_mean_motion": 15.69435895,
        "meta_eccentricity": 0.0003451,
        "meta_inclination": 69.9987,
        "meta_ra_of_asc_node": 281.2091,
        "meta_arg_of_pericenter": 269.9746,
        "meta_mean_anomaly": 194.0189,
        "meta_ephemeris_type": 0,
        "meta_classification_type": "U",
        "meta_norad_cat_id": 67012,
        "meta_element_set_no": 999,
        "meta_rev_at_epoch": 248,
        "meta_bstar": -0.016052,
        "meta_mean_motion_dot": -0.01673375,
        "meta_mean_motion_ddot": 0,
        "tle_line1": "1 67012U 25293K   25361.50002315 -.01673375  00000+0 -16052-1 0  9998",
        "tle_line2": "2 67012  69.9987 281.2091 0003451 269.9746 194.0189 15.69435895  2486"
      },
      "geometry": {
        "type": "Point",
        "coordinates": [
          119.13028321414366,
          -41.34859592797646
        ]
      }
    },
    {
      "type": "Feature",
      "properties": {
        "norad_id": 67013,
        "name": "STARLINK-35856",
        "group": "last-30-days",
        "lat": -43.37311865624991,
        "lon": 120.5603645586225,
        "alt_km": 368.007248423065,
        "timestamp": "2025-12-27T18:38:02.206414+00:00",
        "meta_object_name": "STARLINK-35856",
        "meta_object_id": "2025-293L",
        "meta_epoch": "2025-12-27T12:00:02.000160",
        "meta_mean_motion": 15.69410479,
        "meta_eccentricity": 0.0003311,
        "meta_inclination": 69.9985,
        "meta_ra_of_asc_node": 281.2063,
        "meta_arg_of_pericenter": 271.9629,
        "meta_mean_anomaly": 194.342,
        "meta_ephemeris_type": 0,
        "meta_classification_type": "U",
        "meta_norad_cat_id": 67013,
        "meta_element_set_no": 999,
        "meta_rev_at_epoch": 248,
        "meta_bstar": -0.016049,
        "meta_mean_motion_dot": -0.01671498,
        "meta_mean_motion_ddot": 0,
        "tle_line1": "1 67013U 25293L   25361.50002315 -.01671498  00000+0 -16049-1 0  9999",
        "tle_line2": "2 67013  69.9985 281.2063 0003311 271.9629 194.3420 15.69410479  2484"
      },
      "geometry": {
        "type": "Point",
        "coordinates": [
          120.5603645586225,
          -43.37311865624991
        ]
      }
    },
    {
      "type": "Feature",
      "properties": {
        "norad_id": 67014,
        "name": "STARLINK-36207",
        "group": "last-30-days",
        "lat": -45.31954704000805,
        "lon": 122.0424736921913,
        "alt_km": 368.05728227971485,
        "timestamp": "2025-12-27T18:38:02.206424+00:00",
        "meta_object_name": "STARLINK-36207",
        "meta_object_id": "2025-293M",
        "meta_epoch": "2025-12-27T12:00:02.000160",
        "meta_mean_motion": 15.69324113,
        "meta_eccentricity": 0.0003469,
        "meta_inclination": 69.9986,
        "meta_ra_of_asc_node": 281.2041,
        "meta_arg_of_pericenter": 271.8531,
        "meta_mean_anomaly": 196.7361,
        "meta_ephemeris_type": 0,
        "meta_classification_type": "U",
        "meta_norad_cat_id": 67014,
        "meta_element_set_no": 999,
        "meta_rev_at_epoch": 254,
        "meta_bstar": -0.015395,
        "meta_mean_motion_dot": -0.01605864,
        "meta_mean_motion_ddot": 0,
        "tle_line1": "1 67014U 25293M   25361.50002315 -.01605864  00000+0 -15395-1 0  9997",
        "tle_line2": "2 67014  69.9986 281.2041 0003469 271.8531 196.7361 15.69324113  2543"
      },
      "geometry": {
        "type": "Point",
        "coordinates": [
          122.0424736921913,
          -45.31954704000805
        ]
      }
    },
    {
      "type": "Feature",
      "properties": {
        "norad_id": 67015,
        "name": "STARLINK-36093",
        "group": "last-30-days",
        "lat": -49.097914057526935,
        "lon": 125.28774868855726,
        "alt_km": 368.10442529123156,
        "timestamp": "2025-12-27T18:38:02.206433+00:00",
        "meta_object_name": "STARLINK-36093",
        "meta_object_id": "2025-293N",
        "meta_epoch": "2025-12-27T12:00:02.000160",
        "meta_mean_motion": 15.69360153,
        "meta_eccentricity": 0.000335,
        "meta_inclination": 69.9987,
        "meta_ra_of_asc_node": 281.1981,
        "meta_arg_of_pericenter": 269.5757,
        "meta_mean_anomaly": 203.3797,
        "meta_ephemeris_type": 0,
        "meta_classification_type": "U",
        "meta_norad_cat_id": 67015,
        "meta_element_set_no": 999,
        "meta_rev_at_epoch": 248,
        "meta_bstar": -0.016123,
        "meta_mean_motion_dot": -0.01675206,
        "meta_mean_motion_ddot": 0,
        "tle_line1": "1 67015U 25293N   25361.50002315 -.01675206  00000+0 -16123-1 0  9995",
        "tle_line2": "2 67015  69.9987 281.1981 0003350 269.5757 203.3797 15.69360153  2485"
      },
      "geometry": {
        "type": "Point",
        "coordinates": [
          125.28774868855726,
          -49.097914057526935
        ]
      }
    },
    {
      "type": "Feature",
      "properties": {
        "norad_id": 67016,
        "name": "STARLINK-36120",
        "group": "last-30-days",
        "lat": -47.16004555901199,
        "lon": 123.55592016878173,
        "alt_km": 368.03286605483845,
        "timestamp": "2025-12-27T18:38:02.206446+00:00",
        "meta_object_name": "STARLINK-36120",
        "meta_object_id": "2025-293P",
        "meta_epoch": "2025-12-27T12:00:02.000160",
        "meta_mean_motion": 15.6938124,
        "meta_eccentricity": 0.0003336,
        "meta_inclination": 69.9985,
        "meta_ra_of_asc_node": 281.2013,
        "meta_arg_of_pericenter": 269.1842,
        "meta_mean_anomaly": 201.4895,
        "meta_ephemeris_type": 0,
        "meta_classification_type": "U",
        "meta_norad_cat_id": 67016,
        "meta_element_set_no": 999,
        "meta_rev_at_epoch": 248,
        "meta_bstar": -0.016098,
        "meta_mean_motion_dot": -0.01674173,
        "meta_mean_motion_ddot": 0,
        "tle_line1": "1 67016U 25293P   25361.50002315 -.01674173  00000+0 -16098-1 0  9999",
        "tle_line2": "2 67016  69.9985 281.2013 0003336 269.1842 201.4895 15.69381240  2484"
      },
      "geometry": {
        "type": "Point",
        "coordinates": [
          123.55592016878173,
          -47.16004555901199
        ]
      }
    },
    {
      "type": "Feature",
      "properties": {
        "norad_id": 67017,
        "name": "STARLINK-35498",
        "group": "last-30-days",
        "lat": -50.94130319604976,
        "lon": 127.09195582783198,
        "alt_km": 368.1130962821635,
        "timestamp": "2025-12-27T18:38:02.206458+00:00",
        "meta_object_name": "STARLINK-35498",
        "meta_object_id": "2025-293Q",
        "meta_epoch": "2025-12-27T12:00:02.000160",
        "meta_mean_motion": 15.69341679,
        "meta_eccentricity": 0.0003421,
        "meta_inclination": 69.9983,
        "meta_ra_of_asc_node": 281.1947,
        "meta_arg_of_pericenter": 269.5496,
        "meta_mean_anomaly": 205.6048,
        "meta_ephemeris_type": 0,
        "meta_classification_type": "U",
        "meta_norad_cat_id": 67017,
        "meta_element_set_no": 999,
        "meta_rev_at_epoch": 267,
        "meta_bstar": -0.0161,
        "meta_mean_motion_dot": -0.01672006,
        "meta_mean_motion_ddot": 0,
        "tle_line1": "1 67017U 25293Q   25361.50002315 -.01672006  00000+0 -16100-1 0  9997",
        "tle_line2": "2 67017  69.9983 281.1947 0003421 269.5496 205.6048 15.69341679  2671"
      },
      "geometry": {
        "type": "Point",
        "coordinates": [
          127.09195582783198,
          -50.94130319604976
        ]
      }
    },
    {
      "type": "Feature",
      "properties": {
        "norad_id": 67018,
        "name": "STARLINK-36106",
        "group": "last-30-days",
        "lat": -52.761447181643035,
        "lon": 129.05211299107333,
        "alt_km": 368.15123683566253,
        "timestamp": "2025-12-27T18:38:02.206470+00:00",
        "meta_object_name": "STARLINK-36106",
        "meta_object_id": "2025-293R",
        "meta_epoch": "2025-12-27T12:00:02.000160",
        "meta_mean_motion": 15.69321704,
        "meta_eccentricity": 0.0003491,
        "meta_inclination": 69.9983,
        "meta_ra_of_asc_node": 281.192,
        "meta_arg_of_pericenter": 270.7464,
        "meta_mean_anomaly": 206.6178,
        "meta_ephemeris_type": 0,
        "meta_classification_type": "U",
        "meta_norad_cat_id": 67018,
        "meta_element_set_no": 999,
        "meta_rev_at_epoch": 259,
        "meta_bstar": -0.016087,
        "meta_mean_motion_dot": -0.01669606,
        "meta_mean_motion_ddot": 0,
        "tle_line1": "1 67018U 25293R   25361.50002315 -.01669606  00000+0 -16087-1 0  9994",
        "tle_line2": "2 67018  69.9983 281.1920 0003491 270.7464 206.6178 15.69321704  2592"
      },
      "geometry": {
        "type": "Point",
        "coordinates": [
          129.05211299107333,
          -52.761447181643035
        ]
      }
    }
  ]
}